{
  "type": "FeatureCollection",
  "features": [
    {
      "type": "Feature",
      "properties": {
        "norad_id": 54234,
        "name": "NOAA 21 (JPSS-2)",
        "group": "weather",
        "lat": NaN,
        "lon": NaN,
        "alt_km": NaN,
        "timestamp": "2025-12-01T02:46:55.349691+00:00",
        "meta": {
          "OBJECT_NAME": "NOAA 21 (JPSS-2)",
          "OBJECT_ID": "2022-150A",
          "EPOCH": "2025-11-30T19:57:15.272064",
          "MEAN_MOTION": 14.19518761,
          "ECCENTRICITY": 0.0002585,
          "INCLINATION": 98.7444,
          "RA_OF_ASC_NODE": 271.2892,
          "ARG_OF_PERICENTER": 60.2095,
          "MEAN_ANOMALY": 299.9338,
          "EPHEMERIS_TYPE": 0,
          "CLASSIFICATION_TYPE": "U",
          "NORAD_CAT_ID": 54234,
          "ELEMENT_SET_NO": 999,
          "REV_AT_EPOCH": 15840,
          "BSTAR": 6.9827e-05,
          "MEAN_MOTION_DOT": 1.03e-06,
          "MEAN_MOTION_DDOT": 0
        }
      },
      "geometry": {
        "type": "Point",
        "coordinates": [
          NaN,
          NaN
        ]
      }
    },
    {
      "type": "Feature",
      "properties": {
        "norad_id": 54743,
        "name": "METEOSAT-12 (MTG-I1)",
        "group": "weather",
        "lat": NaN,
        "lon": NaN,
        "alt_km": NaN,
        "timestamp": "2025-12-01T02:46:55.349709+00:00",
        "meta": {
          "OBJECT_NAME": "METEOSAT-12 (MTG-I1)",
          "OBJECT_ID": "2022-170C",
          "EPOCH": "2025-11-30T17:16:01.882272",
          "MEAN_MOTION": 1.00273396,
          "ECCENTRICITY": 0.000138,
          "INCLINATION": 0.7132,
          "RA_OF_ASC_NODE": 29.5279,
          "ARG_OF_PERICENTER": 210.3764,
          "MEAN_ANOMALY": 88.644,
          "EPHEMERIS_TYPE": 0,
          "CLASSIFICATION_TYPE": "U",
          "NORAD_CAT_ID": 54743,
          "ELEMENT_SET_NO": 999,
          "REV_AT_EPOCH": 1098,
          "BSTAR": 0,
          "MEAN_MOTION_DOT": 1.5e-07,
          "MEAN_MOTION_DDOT": 0
        }
      },
      "geometry": {
        "type": "Point",
        "coordinates": [
          NaN,
          NaN
        ]
      }
    },
    {
      "type": "Feature",
      "properties": {
        "norad_id": 55973,
        "name": "TIANMU-1 03",
        "group": "weather",
        "lat": NaN,
        "lon": NaN,
        "alt_km": NaN,
        "timestamp": "2025-12-01T02:46:55.349727+00:00",
        "meta": {
          "OBJECT_NAME": "TIANMU-1 03",
          "OBJECT_ID": "2023-039A",
          "EPOCH": "2025-11-30T19:20:33.552960",
          "MEAN_MOTION": 15.40396029,
          "ECCENTRICITY": 0.0004522,
          "INCLINATION": 97.5106,
          "RA_OF_ASC_NODE": 137.1288,
          "ARG_OF_PERICENTER": 95.3676,
          "MEAN_ANOMALY": 264.8086,
          "EPHEMERIS_TYPE": 0,
          "CLASSIFICATION_TYPE": "U",
          "NORAD_CAT_ID": 55973,
          "ELEMENT_SET_NO": 999,
          "REV_AT_EPOCH": 15022,
          "BSTAR": 0.0004193,
          "MEAN_MOTION_DOT": 0.00016883,
          "MEAN_MOTION_DDOT": 0
        }
      },
      "geometry": {
        "type": "Point",
        "coordinates": [
          NaN,
          NaN
        ]
      }
    },
    {
      "type": "Feature",
      "properties": {
        "norad_id": 55974,
        "name": "TIANMU-1 04",
        "group": "weather",
        "lat": NaN,
        "lon": NaN,
        "alt_km": NaN,
        "timestamp": "2025-12-01T02:46:55.349744+00:00",
        "meta": {
          "OBJECT_NAME": "TIANMU-1 04",
          "OBJECT_ID": "2023-039B",
          "EPOCH": "2025-11-30T20:28:10.756992",
          "MEAN_MOTION": 15.4072536,
          "ECCENTRICITY": 0.0005254,
          "INCLINATION": 97.5037,
          "RA_OF_ASC_NODE": 136.3731,
          "ARG_OF_PERICENTER": 91.427,
          "MEAN_ANOMALY": 268.7578,
          "EPHEMERIS_TYPE": 0,
          "CLASSIFICATION_TYPE": "U",
          "NORAD_CAT_ID": 55974,
          "ELEMENT_SET_NO": 999,
          "REV_AT_EPOCH": 15023,
          "BSTAR": 0.00041297,
          "MEAN_MOTION_DOT": 0.00016811,
          "MEAN_MOTION_DDOT": 0
        }
      },
      "geometry": {
        "type": "Point",
        "coordinates": [
          NaN,
          NaN
        ]
      }
    },
    {
      "type": "Feature",
      "properties": {
        "norad_id": 55975,
        "name": "TIANMU-1 05",
        "group": "weather",
        "lat": NaN,
        "lon": NaN,
        "alt_km": NaN,
        "timestamp": "2025-12-01T02:46:55.349760+00:00",
        "meta": {
          "OBJECT_NAME": "TIANMU-1 05",
          "OBJECT_ID": "2023-039C",
          "EPOCH": "2025-11-30T20:15:44.006112",
          "MEAN_MOTION": 15.4035635,
          "ECCENTRICITY": 0.0004257,
          "INCLINATION": 97.5084,
          "RA_OF_ASC_NODE": 136.8559,
          "ARG_OF_PERICENTER": 112.0159,
          "MEAN_ANOMALY": 248.1539,
          "EPHEMERIS_TYPE": 0,
          "CLASSIFICATION_TYPE": "U",
          "NORAD_CAT_ID": 55975,
          "ELEMENT_SET_NO": 999,
          "REV_AT_EPOCH": 15021,
          "BSTAR": 0.00041065,
          "MEAN_MOTION_DOT": 0.0001651,
          "MEAN_MOTION_DDOT": 0
        }
      },
      "geometry": {
        "type": "Point",
        "coordinates": [
          NaN,
          NaN
        ]
      }
    },
    {
      "type": "Feature",
      "properties": {
        "norad_id": 55976,
        "name": "TIANMU-1 06",
        "group": "weather",
        "lat": NaN,
        "lon": NaN,
        "alt_km": NaN,
        "timestamp": "2025-12-01T02:46:55.349777+00:00",
        "meta": {
          "OBJECT_NAME": "TIANMU-1 06",
          "OBJECT_ID": "2023-039D",
          "EPOCH": "2025-11-30T20:31:53.668992",
          "MEAN_MOTION": 15.40778686,
          "ECCENTRICITY": 0.0004635,
          "INCLINATION": 97.5094,
          "RA_OF_ASC_NODE": 137.3229,
          "ARG_OF_PERICENTER": 107.6074,
          "MEAN_ANOMALY": 252.5678,
          "EPHEMERIS_TYPE": 0,
          "CLASSIFICATION_TYPE": "U",
          "NORAD_CAT_ID": 55976,
          "ELEMENT_SET_NO": 999,
          "REV_AT_EPOCH": 15023,
          "BSTAR": 0.00041208,
          "MEAN_MOTION_DOT": 0.00016802,
          "MEAN_MOTION_DDOT": 0
        }
      },
      "geometry": {
        "type": "Point",
        "coordinates": [
          NaN,
          NaN
        ]
      }
    },
    {
      "type": "Feature",
      "properties": {
        "norad_id": 56232,
        "name": "FENGYUN 3G",
        "group": "weather",
        "lat": NaN,
        "lon": NaN,
        "alt_km": NaN,
        "timestamp": "2025-12-01T02:46:55.349793+00:00",
        "meta": {
          "OBJECT_NAME": "FENGYUN 3G",
          "OBJECT_ID": "2023-055A",
          "EPOCH": "2025-11-30T21:15:49.906656",
          "MEAN_MOTION": 15.52583544,
          "ECCENTRICITY": 0.0009202,
          "INCLINATION": 49.9944,
          "RA_OF_ASC_NODE": 288.5757,
          "ARG_OF_PERICENTER": 91.3123,
          "MEAN_ANOMALY": 268.8899,
          "EPHEMERIS_TYPE": 0,
          "CLASSIFICATION_TYPE": "U",
          "NORAD_CAT_ID": 56232,
          "ELEMENT_SET_NO": 999,
          "REV_AT_EPOCH": 14918,
          "BSTAR": 0.00055982,
          "MEAN_MOTION_DOT": 0.0003483,
          "MEAN_MOTION_DDOT": 0
        }
      },
      "geometry": {
        "type": "Point",
        "coordinates": [
          NaN,
          NaN
        ]
      }
    },
    {
      "type": "Feature",
      "properties": {
        "norad_id": 57166,
        "name": "METEOR-M2 3",
        "group": "weather",
        "lat": NaN,
        "lon": NaN,
        "alt_km": NaN,
        "timestamp": "2025-12-01T02:46:55.349810+00:00",
        "meta": {
          "OBJECT_NAME": "METEOR-M2 3",
          "OBJECT_ID": "2023-091A",
          "EPOCH": "2025-11-30T21:17:40.387200",
          "MEAN_MOTION": 14.24023688,
          "ECCENTRICITY": 0.0004525,
          "INCLINATION": 98.6394,
          "RA_OF_ASC_NODE": 28.6327,
          "ARG_OF_PERICENTER": 40.2801,
          "MEAN_ANOMALY": 319.8713,
          "EPHEMERIS_TYPE": 0,
          "CLASSIFICATION_TYPE": "U",
          "NORAD_CAT_ID": 57166,
          "ELEMENT_SET_NO": 999,
          "REV_AT_EPOCH": 12629,
          "BSTAR": 2.3789e-05,
          "MEAN_MOTION_DOT": 1.1e-07,
          "MEAN_MOTION_DDOT": 0
        }
      },
      "geometry": {
        "type": "Point",
        "coordinates": [
          NaN,
          NaN
        ]
      }
    }
  ]
}