NOAA 21 (JPSS-2)        
1 54234U 22150A   25334.83142676  .00000103  00000+0  69827-4 0  9991
2 54234  98.7444 271.2892 0002585  60.2095 299.9338 14.19518761158403
METEOSAT-12 (MTG-I1)    
1 54743U 22170C   25334.71946623  .00000015  00000+0  00000+0 0  9994
2 54743   0.7132  29.5279 0001380 210.3764  88.6440  1.00273396 10986
TIANMU-1 03             
1 55973U 23039A   25334.80594390  .00016883  00000+0  41930-3 0  9996
2 55973  97.5106 137.1288 0004522  95.3676 264.8086 15.40396029150221
TIANMU-1 04             
1 55974U 23039B   25334.85290228  .00016811  00000+0  41297-3 0  9992
2 55974  97.5037 136.3731 0005254  91.4270 268.7578 15.40725360150233
TIANMU-1 05             
1 55975U 23039C   25334.84425933  .00016510  00000+0  41065-3 0  9994
2 55975  97.5084 136.8559 0004257 112.0159 248.1539 15.40356350150213
TIANMU-1 06             
1 55976U 23039D   25334.85548228  .00016802  00000+0  41208-3 0  9992
2 55976  97.5094 137.3229 0004635 107.6074 252.5678 15.40778686150236
FENGYUN 3G              
1 56232U 23055A   25334.88599429  .00034830  00000+0  55982-3 0  9993
2 56232  49.9944 288.5757 0009202  91.3123 268.8899 15.52583544149188
METEOR-M2 3             
1 57166U 23091A   25334.88727300  .00000011  00000+0  23789-4 0  9996
2 57166  98.6394  28.6327 0004525  40.2801 319.8713 14.24023688126295
